METOP-C                 
1 43689U 18087A   26183.62364163  .00000136  00000+0  81792-4 0  9995
2 43689  98.6637 242.9446 0002151 109.7578 250.3831 14.21516363397023
GEO-KOMPSAT-2A          
1 43823U 18100A   26183.32283275 -.00000333  00000+0  00000+0 0  9990
2 43823   0.0475 176.1594 0002257 277.9346  70.7403  1.00269062 27786
METEOR-M2 2             
1 44387U 19038A   26183.62855956 -.00000063  00000+0 -75548-5 0  9997
2 44387  98.9147 171.1421 0001443  24.8572 335.2676 14.24369674363496
ARKTIKA-M 1             
1 47719U 21016A   26180.95192977 -.00000281  00000+0  00000+0 0  9994
2 47719  63.2520  55.7907 7292817 269.9910  14.5481  2.00617895 39040
FENGYUN 3E              
1 49008U 21062A   26183.56348109  .00000277  00000+0  15138-3 0  9994
2 49008  98.7489 186.8000 0002679  60.5348 299.6096 14.19906210258763
GOES 18                 
1 51850U 22021A   26183.51503192  .00000107  00000+0  00000+0 0  9998
2 51850   0.0159 189.8494 0000555 312.8280 186.2815  1.00271405  6746
NOAA 21 (JPSS-2)        
1 54234U 22150A   26183.61131138  .00000059  00000+0  48515-4 0  9992
2 54234  98.7060 122.1414 0002456 126.9456 233.1946 14.19539269188739
METEOSAT-12 (MTG-I1)    
1 54743U 22170C   26183.29739899  .00000004  00000+0  00000+0 0  9993
2 54743   0.7547  25.2699 0003630  74.3202 287.5637  1.00276260 13120
TIANMU-1 03             
1 55973U 23039A   26183.56928955  .00015808  00000+0  30698-3 0  9995
2 55973  97.5235 358.1450 0003643  60.2594 299.9018 15.47723357183217
TIANMU-1 04             
1 55974U 23039B   26183.55275600  .00015853  00000+0  30135-3 0  9993
2 55974  97.5173 357.2828 0004054  54.6421 305.5207 15.48337261183222
TIANMU-1 05             
1 55975U 23039C   26183.61545867  .00015252  00000+0  29702-3 0  9997
2 55975  97.5219 357.8022 0003732  77.6711 282.4956 15.47650218183206
TIANMU-1 06             
1 55976U 23039D   26183.62173984  .00015731  00000+0  30009-3 0  9990
2 55976  97.5225 358.4602 0003960  72.8366 287.3318 15.48238570183234
FENGYUN 3G              
1 56232U 23055A   26183.61347079  .00023012  00000+0  36352-3 0  9999
2 56232  49.9925 266.4994 0007322   1.0623 359.0359 15.53312532182403
METEOR-M2 3             
1 57166U 23091A   26183.62643262 -.00000004  00000+0  16999-4 0  9993
2 57166  98.6074 238.2883 0005008 118.4864 241.6821 14.24048062156715
TIANMU-1 07             
1 57399U 23101A   26183.60146310  .00006775  00000+0  23588-3 0  9994
2 57399  97.2579 233.9166 0004276  90.5558 269.6173 15.29987865164000
TIANMU-1 08             
1 57400U 23101B   26183.56806275  .00006957  00000+0  24208-3 0  9997
2 57400  97.2568 233.6524 0005485  78.3507 281.8349 15.29991735163996
TIANMU-1 09             
1 57401U 23101C   26183.61654421  .00007059  00000+0  24533-3 0  9993
2 57401  97.2526 233.1077 0004891  92.9455 267.2346 15.30028757164008
TIANMU-1 10             
1 57402U 23101D   26183.58447029  .00006766  00000+0  23541-3 0  9996
2 57402  97.2606 234.1426 0006340  87.1019 273.0948 15.30001047163993
FENGYUN 3F              
1 57490U 23111A   26183.61749916  .00000060  00000+0  48560-4 0  9998
2 57490  98.6831 253.3384 0001484  82.7827 277.3519 14.19941720151055
ARKTIKA-M 2             
1 58584U 23198A   26180.72239164  .00000148  00000+0  00000+0 0  9995
2 58584  63.2199 152.9641 6905877 267.3845  18.7575  2.00610643 18573
TIANMU-1 11             
1 58645U 23205A   26183.58341795  .00006048  00000+0  22976-3 0  9998
2 58645  97.3437 204.8995 0007229 318.4904  41.5786 15.27153603139871
TIANMU-1 12             
1 58646U 23205B   26183.42334862  .00006720  00000+0  25584-3 0  9994
2 58646  97.3426 204.4940 0005309 296.9950  63.0746 15.27051163139833
TIANMU-1 13             
1 58647U 23205C   26183.58778944  .00006357  00000+0  24276-3 0  9998
2 58647  97.3454 204.9314 0004974 270.3095  89.7574 15.26974736139853
TIANMU-1 14             
1 58648U 23205D   26183.57254529  .00006174  00000+0  23550-3 0  9997
2 58648  97.3391 204.0861 0005769 277.6929  82.3655 15.27019048139857
TIANMU-1 19             
1 58660U 23208A   26183.57413271  .00008629  00000+0  28347-3 0  9991
2 58660  97.4523 299.9552 0003637 252.2848 107.7997 15.31806969139683
TIANMU-1 20             
1 58661U 23208B   26183.59998714  .00008852  00000+0  28009-3 0  9997
2 58661  97.4465 300.6327 0005593 265.4630  94.5973 15.32996336139784
TIANMU-1 21             
1 58662U 23208C   26183.56493830  .00009801  00000+0  28765-3 0  9998
2 58662  97.4525 303.3450 0005769 255.6996 104.3607 15.35350522139924
TIANMU-1 22             
1 58663U 23208D   26183.56119706  .00007977  00000+0  26665-3 0  9995
2 58663  97.4519 299.8651 0002183 288.1457  71.9547 15.31272501139681
TIANMU-1 15             
1 58700U 24004A   26182.84348373  .00008429  00000+0  32265-3 0  9992
2 58700  97.4664   9.0340 0005689 288.6642  71.3979 15.26798099138013
TIANMU-1 16             
1 58701U 24004B   26183.62026010  .00005902  00000+0  22613-3 0  9990
2 58701  97.4613   9.0344 0004493 306.0940  53.9882 15.26905258138139
TIANMU-1 17             
1 58702U 24004C   26183.60572682  .00006132  00000+0  23485-3 0  9994
2 58702  97.4641   9.5104 0004100 314.2426  45.8475 15.26903535138128
TIANMU-1 18             
1 58703U 24004D   26183.64666124  .00006001  00000+0  23050-3 0  9997
2 58703  97.4658   9.8128 0003408 288.2324  71.8544 15.26822650138138
INSAT-3DS               
1 58990U 24033A   26183.38496356 -.00000144  00000+0  00000+0 0  9995
2 58990   0.0716  96.8706 0001431 355.3676  48.8097  1.00269425 47227
METEOR-M2 4             
1 59051U 24039A   26183.58833083  .00000017  00000+0  27372-4 0  9998
2 59051  98.7018 142.6933 0008030 120.2398 239.9576 14.22431088121456
GOES 19                 
1 60133U 24119A   26183.56768634 -.00000238  00000+0  00000+0 0  9997
2 60133   0.0126  77.9489 0000538  80.1000 251.7333  1.00271173  7118
MTG-S1                  
1 64723U 25143A   26183.29731233  .00000003  00000+0  00000+0 0  9998
2 64723   0.5917 342.1375 0002909 264.7264 140.0482  1.00271232  3574
METOP-SGA1              
1 65159U 25172A   26183.57290477  .00000063  00000+0  49889-4 0  9994
2 65159  98.6637 242.9750 0007790   9.7032 350.4294 14.19817578 45973
FENGYUN 3H              
1 65815U 25219A   26183.54361166  .00000063  00000+0  49937-4 0  9990
2 65815  98.6770 124.0143 0001394  66.2166 293.9157 14.19923059 39565
OSCAR 7 (AO-7)          
1 07530U 74089B   26183.48564858 -.00000043  00000+0  23671-4 0  9991
2 07530 101.9899 196.8917 0012660 101.7841  56.6522 12.53698362362431
PHASE 3B (AO-10)        
1 14129U 83058B   26182.45083748 -.00000048  00000+0  00000+0 0  9990
2 14129  25.9245 217.2087 6005973 119.5898 312.7847  2.05870235295789
UOSAT 2 (UO-11)         
1 14781U 84021B   26183.45749264  .00001662  00000+0  17450-3 0  9991
2 14781  97.8066 148.8624 0008792 126.6044 233.5984 14.90823192259404
LUSAT (LO-19)           
1 20442U 90005G   26183.53106192  .00000138  00000+0  65860-4 0  9993
2 20442  98.8845 205.7592 0011987 156.2041 203.9699 14.34127832904591
EYESAT A (AO-27)        
1 22825U 93061C   26183.59287117  .00000133  00000+0  67579-4 0  9992
2 22825  98.6875 251.0004 0009336  59.8657 300.3450 14.30946419709201
ITAMSAT (IO-26)         
1 22826U 93061D   26183.14826960  .00000118  00000+0  61280-4 0  9995
2 22826  98.6822 250.4751 0009661  45.6293 314.5680 14.31373513709455
RADIO ROSTO (RS15)      
1 23439U 94085A   26183.63657220 -.00000013  00000+0  83577-3 0  9995
2 23439  64.8179 278.2310 0156463   1.0199 359.1016 11.27583484297642
JAS-2 (FO-29)           
1 24278U 96046B   26183.46748802 -.00000028  00000+0  56481-5 0  9996
2 24278  98.5226  30.2454 0350788  56.8950 306.5350 13.53274944475234
TECHSAT 1B (GO-32)      
1 25397U 98043D   26183.44759188  .00000060  00000+0  46153-4 0  9994
2 25397  99.0074 176.5914 0001766 135.3675 224.7645 14.24431385453502
ISS (ZARYA)             
1 25544U 98067A   26182.50817465  .00006185  00000+0  11827-3 0  9996
2 25544  51.6311 229.1989 0004224 255.0896 104.9625 15.49503254573972
PCSAT (NO-44)           
1 26931U 01043C   26183.45542852  .00000104  00000+0  69838-4 0  9996
2 26931  67.0489 204.7811 0006017 265.5934  94.4481 14.31961164292636
SAUDISAT 1C (SO-50)     
1 27607U 02058C   26183.32741954  .00001045  00000+0  14035-3 0  9997
2 27607  64.5520  82.1417 0074891 259.6484  99.6174 14.83078536266708
CUTE-1 (CO-55)          
1 27844U 03031E   26182.99996152  .00000303  00000+0  15002-3 0  9997
2 27844  98.6736 191.3725 0010408 137.1021 223.0971 14.24344824193780
CUBESAT XI-IV (CO-57)   
1 27848U 03031J   26183.27698888  .00000271  00000+0  13794-3 0  9998
2 27848  98.6769 191.3466 0009960 153.7682 206.4003 14.23628936193521
MOZHAETS 4 (RS22)       
1 27939U 03042A   26183.63163689  .00001294  00000+0  20741-3 0  9993
2 27939  98.3466   8.4267 0010336 214.8198 230.7252 14.73495537217820
CUBESAT XI-V            
1 28895U 05043F   26183.41856719  .00001691  00000+0  27314-3 0  9991
2 28895  98.3001 339.3615 0014682 152.9722 207.2252 14.72674389103997
CUTE-1.7+APD II (CO-65) 
1 32785U 08021C   26183.56122094  .00006417  00000+0  40310-3 0  9993
2 32785  97.8284 165.3013 0008151 348.3285  11.7753 15.09600561987519
SEEDS II (CO-66)        
1 32791U 08021J   26183.47484271  .00019684  00000+0  61380-3 0  9998
2 32791  97.7520 182.1078 0001445 187.7545 172.3674 15.33279762989632
YUBILEINY (RS30)        
1 32953U 08025A   26183.63072779 -.00000097  00000+0 -76474-3 0  9996
2 32953  82.5045 345.8315 0018504 278.1378  81.7603 12.43179737821618
KKS-1 (KISEKI)          
1 33499U 09002H   26183.57124130  .00001574  00000+0  19968-3 0  9994
2 33499  98.1182 106.2572 0006555 235.0074 125.0524 14.83163808938476
SWISSCUBE               
1 35932U 09051B   26183.28877764  .00001164  00000+0  23926-3 0  9992
2 35932  98.4025  91.4397 0007061 154.9157 205.2388 14.62510844891361
